STARLINK-36557          
1 67500C 26012H   26178.36923611 -.00009438  00000+0 -34155-3 0  1789
2 67500  43.0014  55.0260 0001500 265.8479 162.4688 15.27611681    11
STARLINK-36433          
1 67501C 26012J   26178.43729167  .00013044  00000+0  47253-3 0  1787
2 67501  43.0014  54.5880 0001650 256.2107 208.1225 15.27567247    15
STARLINK-36554          
1 67502C 26012K   26178.35743056 -.00009888  00000+0 -35854-3 0  1789
2 67502  43.0012  54.9539 0001481 262.7099 157.2638 15.27546636    14
STARLINK-36552          
1 67503C 26012L   26178.36229167 -.00009792  00000+0 -35477-3 0  1788
2 67503  43.0015  54.8692 0001657 284.5602 183.4500 15.27574642    11
STARLINK-36512          
1 67504C 26012M   26178.36298611 -.00012260  00000+0 -44403-3 0  1782
2 67504  43.0014  54.7648 0001396 270.3579 243.8894 15.27586301    19
STARLINK-36545          
1 67505C 26012N   26178.40951389  .00001695  00000+0  61380-4 0  1788
2 67505  43.0023  54.4503 0001650 261.5468 170.0961 15.27581776    16
STARLINK-36553          
1 67506C 26012P   26178.41576389 -.00231830  00000+0 -83908-2 0  1789
2 67506  43.0032  54.3610 0001419 265.4448 221.8764 15.27716749    15
STARLINK-36521          
1 67507C 26012Q   26178.42965278  .00004785  00000+0  17329-3 0  1780
2 67507  43.0040  54.2484 0001523 268.6925 309.2011 15.27576754    10
STARLINK-36526          
1 67508C 26012R   26178.43937500  .00010784  00000+0  39046-3 0  1785
2 67508  43.0041  54.1413 0001687 267.4167  25.2317 15.27584388    15
STARLINK-36541          
1 67509C 26012S   26178.36506944 -.00018318  00000+0 -66378-3 0  1783
2 67509  43.0038  55.3893 0001543 265.1971   5.8372 15.27571999    15
STARLINK-36549          
1 67510C 26012T   26178.36576389 -.00016473  00000+0 -59671-3 0  1783
2 67510  43.0041  54.5589 0001338 269.2483 331.0925 15.27583178    19
STARLINK-36540          
1 67511C 26012U   26178.39076389 -.00003783  00000+0 -13701-3 0  1786
2 67511  43.0040  55.1916 0001399 275.0249 158.6773 15.27584786    12
STARLINK-36538          
1 67512C 26012V   26178.36090278 -.00018098  00000+0 -65592-3 0  1787
2 67512  43.0039  55.2715 0001631 265.9490  31.7230 15.27566271    12
STARLINK-36531          
1 67513C 26012W   26178.37756944 -.00007516  00000+0 -27218-3 0  1784
2 67513  43.0019  55.0432 0001367 271.5134 174.4608 15.27586834    10
STARLINK-36530          
1 67514C 26012X   26178.36506944 -.00010800  00000+0 -39143-3 0  1787
2 67514  43.0015  55.0644 0001407 275.0328 123.3368 15.27561040    19
STARLINK-36543          
1 67515C 26012Y   26178.39284722 -.00009475  00000+0 -34328-3 0  1784
2 67515  43.0013  54.8570 0001668 282.1979 290.3683 15.27572896    19
STARLINK-36537          
1 67516C 26012Z   26178.42340278  .00006432  00000+0  23323-3 0  1789
2 67516  43.0018  54.5389 0001052 268.5306 168.9419 15.27539276    11
STARLINK-36544          
1 67517C 26012AA  26178.40673611 -.00004611  00000+0 -16692-3 0  1788
2 67517  43.0016  54.7197 0001621 270.7083  39.5207 15.27600668    10
STARLINK-36412          
1 67518C 26012AB  26178.35812500 -.00011681  00000+0 -42284-3 0  1786
2 67518  43.0020  54.7517 0001560 264.0333 237.6242 15.27601457    15
STARLINK-36415          
1 67519C 26012AC  26178.43243056  .00006602  00000+0  23910-3 0  1780
2 67519  43.0030  54.2729 0001497 269.4407 302.5335 15.27576043    14
STARLINK-36547          
1 67520C 26012AD  26178.34979167 -.00009084  00000+0 -32914-3 0  1784
2 67520  43.0014  54.8495 0001320 270.5798 163.9774 15.27572442    10
STARLINK-36444          
1 67521C 26012AE  26178.41576389  .00050731  00000+0  18390-2 0  1786
2 67521  43.0009  54.5315 0001718 262.8961 153.5850 15.27525869    11
STARLINK-36587          
1 67532C 26014A   26178.43451389 -.00022850  00000+0 -70909-3 0  1782
2 67532  97.2869  65.0508 0001809  90.4228 311.8330 15.33459518    17
STARLINK-36417          
1 67533C 26014B   26178.38520833 -.00020346  00000+0 -63140-3 0  1785
2 67533  97.2865  64.9116 0001818  86.6834 193.5625 15.33458876    15
STARLINK-36576          
1 67534C 26014C   26178.34909722 -.00042988  00000+0 -13333-2 0  1784
2 67534  97.2865  64.9027 0001835 104.4166  36.6182 15.33487658    18
STARLINK-36574          
1 67535C 26014D   26178.37131944 -.00032359  00000+0 -10039-2 0  1782
2 67535  97.2868  64.9680 0001738  91.4188 277.2034 15.33473740    14
STARLINK-36572          
1 67536C 26014E   26178.35326389 -.00041869  00000+0 -12973-2 0  1785
2 67536  97.2865  64.8995 0002006 106.8202  42.1978 15.33517491    15
STARLINK-36561          
1 67537C 26014F   26178.35534722 -.00039856  00000+0 -12369-2 0  1780
2 67537  97.2864  64.9187 0001683 102.6190 102.8814 15.33467199    11
STARLINK-36397          
1 67538C 26014G   26178.36715278 -.00033509  00000+0 -10394-2 0  1784
2 67538  97.2868  64.9681 0001716  90.7192 269.9222 15.33478258    17
STARLINK-36573          
1 67539C 26014H   26178.41298611 -.00007090  00000+0 -22004-3 0  1786
2 67539  97.2863  64.9851 0001659  96.0758  82.4353 15.33448711    19
STARLINK-36585          
1 67540C 26014J   26178.40743056 -.00012886  00000+0 -39988-3 0  1783
2 67540  97.2864  64.9902 0001708  95.3353  82.5063 15.33455392    19
STARLINK-36579          
1 67541C 26014K   26178.42756944 -.00010576  00000+0 -32824-3 0  1782
2 67541  97.2867  65.0878 0001779  98.9617   9.9855 15.33448984    18
STARLINK-35934          
1 67542C 26014L   26178.36715278 -.00031370  00000+0 -97348-3 0  1788
2 67542  97.2868  65.0166 0001859  98.5501   7.0868 15.33464804    19
STARLINK-36581          
1 67543C 26014M   26178.39215278 -.00023145  00000+0 -71812-3 0  1786
2 67543  97.2863  64.9709 0001699  94.8261 343.7264 15.33465766    18
STARLINK-36565          
1 67544C 26014N   26178.38312500 -.00025144  00000+0 -78033-3 0  1785
2 67544  97.2864  64.9431 0001734  91.3209 252.4614 15.33460053    15
STARLINK-36583          
1 67545C 26014P   26178.37131944 -.00032375  00000+0 -10045-2 0  1788
2 67545  97.2870  64.9941 0001783  93.8874 334.7334 15.33471248    19
STARLINK-36580          
1 67546C 26014Q   26178.38659722 -.00025468  00000+0 -79036-3 0  1780
2 67546  97.2864  64.9277 0001825  98.7088 219.2030 15.33460848    17
STARLINK-36584          
1 67547C 26014R   26178.33520833 -.00037491  00000+0 -11631-2 0  1781
2 67547  97.2871  64.9726 0001815  89.2114 170.1949 15.33476725    14
STARLINK-36586          
1 67548C 26014S   26178.38520833 -.00021094  00000+0 -65459-3 0  1787
2 67548  97.2871  65.0297 0001833  97.0177  93.2284 15.33459587    10
STARLINK-36564          
1 67549C 26014T   26178.40326389 -.00024877  00000+0 -77198-3 0  1786
2 67549  97.2865  64.9374 0001838  92.8397 302.0178 15.33462248    11
STARLINK-36563          
1 67550C 26014U   26178.41020833 -.00013714  00000+0 -42559-3 0  1785
2 67550  97.2868  65.0652 0001814  96.6905 261.4801 15.33454171    15
STARLINK-36566          
1 67551C 26014V   26178.37756944 -.00024602  00000+0 -76332-3 0  1784
2 67551  97.2866  64.8994 0002024 101.8130 121.2935 15.33466645    13
STARLINK-36567          
1 67552C 26014W   26178.42340278 -.00024757  00000+0 -76828-3 0  1781
2 67552  97.2869  65.0498 0001787  90.0165 280.9408 15.33460726    13
STARLINK-36569          
1 67553C 26014X   26178.37756944 -.00031769  00000+0 -98580-3 0  1787
2 67553  97.2869  64.9893 0001782  99.6340 333.4606 15.33466845    18
STARLINK-36395          
1 67554C 26014Y   26178.34631944 -.00044444  00000+0 -13789-2 0  1788
2 67554  97.2863  67.8261 0002083  95.9940  92.0336 15.33476978    10
STARLINK-36559          
1 67555C 26014Z   26178.37409722 -.00030995  00000+0 -96168-3 0  1788
2 67555  97.2865  64.9654 0001766  90.8165 278.1226 15.33470324    11
STARLINK-36426          
1 67560C 26014AA  26178.40743056 -.00016981  00000+0 -52703-3 0  1785
2 67560  97.2866  65.0754 0001857  97.6836 275.1617 15.33453121    19
STARLINK-36621          
1 67561C 26016A   26178.38312500 -.00010406  00000+0 -32320-3 0  1780
2 67561  97.2847 238.1879 0000462 105.8991 179.7488 15.33429125    17
STARLINK-36398          
1 67562C 26016B   26178.34909722 -.00027535  00000+0 -85515-3 0  1780
2 67562  97.2847 238.2875 0000331 151.6362 261.2796 15.33439159    18
STARLINK-36403          
1 67563C 26016C   26178.39145833 -.00008975  00000+0 -27890-3 0  1780
2 67563  97.2850 238.2847 0000953  99.4250  82.2443 15.33411703    12
STARLINK-36593          
1 67564C 26016D   26178.34840278 -.00037468  00000+0 -11639-2 0  1783
2 67564  97.2849 238.2290 0000867 103.6035 170.5039 15.33435781    10
STARLINK-35725          
1 67565C 26016E   26178.41923611  .00020014  00000+0  62156-3 0  1783
2 67565  97.2850 238.2563 0000275 133.9088  65.9498 15.33416340    19
STARLINK-36394          
1 67566C 26016F   26178.36020833 -.00027169  00000+0 -84365-3 0  1788
2 67566  97.2849 238.1920 0000501 212.4297   6.7693 15.33444045    14
STARLINK-36352          
1 67567C 26016G   26178.39701389 -.00005501  00000+0 -17084-3 0  1784
2 67567  97.2852 238.3057 0000210  79.3252 162.9268 15.33428439    12
STARLINK-36435          
1 67568C 26016H   26178.38729167 -.00118030  00000+0 -36696-2 0  1789
2 67568  97.2849 238.3213 0001468  91.0508 157.7034 15.33450826    12
STARLINK-36575          
1 67569C 26016J   26178.40951389  .00015481  00000+0  48124-3 0  1780
2 67569  97.2848 239.2760 0000416 148.3148 274.7595 15.33386851    15
STARLINK-36562          
1 67570C 26016K   26178.40326389  .00002189  00000+0  67996-4 0  1788
2 67570  97.2851 238.3186 0000506 173.9014 117.8371 15.33423722    17
STARLINK-36578          
1 67571C 26016L   26178.34701389 -.00029794  00000+0 -92519-3 0  1780
2 67571  97.2848 238.1724 0000610 246.0593 245.3470 15.33444132    15
STARLINK-36350          
1 67572C 26016M   26178.35812500 -.00029885  00000+0 -92813-3 0  1788
2 67572  97.2850 238.2094 0000309  93.8616 158.8519 15.33440911    12
